start=new Date('2023-06-07T00:00:00.000Z').valueOf();
sats=[{"OBJECT_TYPE":"PAYLOAD","MEAN_MOTION":"15.08832783","COUNTRY_CODE":"US","MEAN_MOTION_DOT":"0.00000241","GP_ID":"233359827","PERIAPSIS":"539.030","ELEMENT_SET_NO":"999","FILE":"3926571","SEMIMAJOR_AXIS":"6917.902","OBJECT_NAME":"STARLINK-4023","MEAN_ELEMENT_THEORY":"SGP4","REF_FRAME":"TEME","INCLINATION":"53.2185","EPHEMERIS_TYPE":"0","REV_AT_EPOCH":"5019","EPOCH":"2023-06-06T18:24:03.259296","DECAY_DATE":null,"CENTER_NAME":"EARTH","BSTAR":"0.00003320800000","SITE":"AFETR","ECCENTRICITY":"0.00010660","PERIOD":"95.438","TIME_SYSTEM":"UTC","TLE_LINE1":"1 53135U 22083D   23157.76670439  .00000241  00000-0  33208-4 0  9999","MEAN_MOTION_DDOT":"0.0000000000000","LAUNCH_DATE":"2022-07-17","CLASSIFICATION_TYPE":"U","RA_OF_ASC_NODE":"14.3718","RCS_SIZE":"LARGE","MEAN_ANOMALY":"274.5407","NORAD_CAT_ID":"53135","TLE_LINE2":"2 53135  53.2185  14.3718 0001066  85.5707 274.5407 15.08832783 50191","APOAPSIS":"540.505","ARG_OF_PERICENTER":"85.5707","OBJECT_ID":"2022-083D"},{"FILE":"3926571","ELEMENT_SET_NO":"999","PERIAPSIS":"538.917","SEMIMAJOR_AXIS":"6917.861","OBJECT_NAME":"STARLINK-4152","GP_ID":"233358575","MEAN_MOTION_DOT":"-0.00000775","COUNTRY_CODE":"US","OBJECT_TYPE":"PAYLOAD","MEAN_MOTION":"15.08846211","INCLINATION":"53.2174","REV_AT_EPOCH":"5019","EPHEMERIS_TYPE":"0","REF_FRAME":"TEME","MEAN_ELEMENT_THEORY":"SGP4","LAUNCH_DATE":"2022-07-17","CLASSIFICATION_TYPE":"U","PERIOD":"95.437","MEAN_MOTION_DDOT":"0.0000000000000","TLE_LINE1":"1 53136U 22083E   23157.76301760 -.00000775  00000-0 -30597-4 0  9990","TIME_SYSTEM":"UTC","SITE":"AFETR","BSTAR":"-0.00003059700000","ECCENTRICITY":"0.00011700","EPOCH":"2023-06-06T18:18:44.720640","DECAY_DATE":null,"CENTER_NAME":"EARTH","ARG_OF_PERICENTER":"93.5437","APOAPSIS":"540.536","OBJECT_ID":"2022-083E","TLE_LINE2":"2 53136  53.2174  14.3876 0001170  93.5437 266.5689 15.08846211 50194","NORAD_CAT_ID":"53136","RCS_SIZE":"LARGE","MEAN_ANOMALY":"266.5689","RA_OF_ASC_NODE":"14.3876"},{"NORAD_CAT_ID":"53137","TLE_LINE2":"2 53137  53.2184  14.4198 0001044  95.3008 264.8103 15.08837868 49208","ARG_OF_PERICENTER":"95.3008","APOAPSIS":"540.474","OBJECT_ID":"2022-083F","RA_OF_ASC_NODE":"14.4198","RCS_SIZE":"LARGE","MEAN_ANOMALY":"264.8103","PERIOD":"95.438","TLE_LINE1":"1 53137U 22083F   23157.75565842  .00000586  00000-0  54917-4 0  9993","MEAN_MOTION_DDOT":"0.0000000000000","TIME_SYSTEM":"UTC","LAUNCH_DATE":"2022-07-17","CLASSIFICATION_TYPE":"U","DECAY_DATE":null,"EPOCH":"2023-06-06T18:08:08.887488","CENTER_NAME":"EARTH","SITE":"AFETR","ECCENTRICITY":"0.00010440","BSTAR":"0.00005491700000","INCLINATION":"53.2184","REV_AT_EPOCH":"4920","EPHEMERIS_TYPE":"0","MEAN_ELEMENT_THEORY":"SGP4","REF_FRAME":"TEME","GP_ID":"233358825","ELEMENT_SET_NO":"999","FILE":"3926571","PERIAPSIS":"539.030","OBJECT_NAME":"STARLINK-4145","SEMIMAJOR_AXIS":"6917.887","OBJECT_TYPE":"PAYLOAD","MEAN_MOTION":"15.08837868","MEAN_MOTION_DOT":"0.00000586","COUNTRY_CODE":"US"},{"TIME_SYSTEM":"UTC","MEAN_MOTION_DDOT":"0.0000000000000","TLE_LINE1":"1 53138U 22083G   23157.75430422  .00000196  00000-0  30379-4 0  9992","PERIOD":"95.438","CLASSIFICATION_TYPE":"U","LAUNCH_DATE":"2022-07-17","CENTER_NAME":"EARTH","EPOCH":"2023-06-06T18:06:11.884608","DECAY_DATE":null,"ECCENTRICITY":"0.00012580","SITE":"AFETR","BSTAR":"0.00003037900000","TLE_LINE2":"2 53138  53.2179   9.6089 0001258  82.0157 278.0978 15.08836795 50042","NORAD_CAT_ID":"53138","OBJECT_ID":"2022-083G","APOAPSIS":"540.625","ARG_OF_PERICENTER":"82.0157","RA_OF_ASC_NODE":"9.6089","MEAN_ANOMALY":"278.0978","RCS_SIZE":"LARGE","GP_ID":"233359077","OBJECT_NAME":"STARLINK-4141","SEMIMAJOR_AXIS":"6917.890","PERIAPSIS":"538.885","FILE":"3926571","ELEMENT_SET_NO":"999","MEAN_MOTION":"15.08836795","OBJECT_TYPE":"PAYLOAD","MEAN_MOTION_DOT":"0.00000196","COUNTRY_CODE":"US","EPHEMERIS_TYPE":"0","REV_AT_EPOCH":"5004","INCLINATION":"53.2179","MEAN_ELEMENT_THEORY":"SGP4","REF_FRAME":"TEME"},{"MEAN_ELEMENT_THEORY":"SGP4","REF_FRAME":"TEME","EPHEMERIS_TYPE":"0","REV_AT_EPOCH":"4920","INCLINATION":"53.2178","MEAN_MOTION":"15.08837903","OBJECT_TYPE":"PAYLOAD","COUNTRY_CODE":"US","MEAN_MOTION_DOT":"-0.00000632","GP_ID":"233359328","SEMIMAJOR_AXIS":"6917.887","OBJECT_NAME":"STARLINK-4185","PERIAPSIS":"538.961","ELEMENT_SET_NO":"999","FILE":"3926571","RA_OF_ASC_NODE":"14.4713","MEAN_ANOMALY":"268.1078","RCS_SIZE":"LARGE","TLE_LINE2":"2 53139  53.2178  14.4713 0001143  92.0045 268.1078 15.08837903 49209","NORAD_CAT_ID":"53139","OBJECT_ID":"2022-083H","APOAPSIS":"540.543","ARG_OF_PERICENTER":"92.0045","CENTER_NAME":"EARTH","EPOCH":"2023-06-06T17:52:15.289824","DECAY_DATE":null,"SITE":"AFETR","ECCENTRICITY":"0.00011430","BSTAR":"-0.00002166000000","TIME_SYSTEM":"UTC","TLE_LINE1":"1 53139U 22083H   23157.74462141 -.00000632  00000-0 -21660-4 0  9995","MEAN_MOTION_DDOT":"0.0000000000000","PERIOD":"95.438","CLASSIFICATION_TYPE":"U","LAUNCH_DATE":"2022-07-17"},{"RA_OF_ASC_NODE":"14.4567","RCS_SIZE":"LARGE","MEAN_ANOMALY":"267.5134","NORAD_CAT_ID":"53140","TLE_LINE2":"2 53140  53.2167  14.4567 0001206  92.5996 267.5134 15.08838258 49206","APOAPSIS":"540.585","ARG_OF_PERICENTER":"92.5996","OBJECT_ID":"2022-083J","DECAY_DATE":null,"EPOCH":"2023-06-06T17:57:33.326496","CENTER_NAME":"EARTH","BSTAR":"-0.00003736100000","SITE":"AFETR","ECCENTRICITY":"0.00012060","PERIOD":"95.438","TIME_SYSTEM":"UTC","TLE_LINE1":"1 53140U 22083J   23157.74830239 -.00000882  00000-0 -37361-4 0  9996","MEAN_MOTION_DDOT":"0.0000000000000","LAUNCH_DATE":"2022-07-17","CLASSIFICATION_TYPE":"U","MEAN_ELEMENT_THEORY":"SGP4","REF_FRAME":"TEME","INCLINATION":"53.2167","EPHEMERIS_TYPE":"0","REV_AT_EPOCH":"4920","OBJECT_TYPE":"PAYLOAD","MEAN_MOTION":"15.08838258","COUNTRY_CODE":"US","MEAN_MOTION_DOT":"-0.00000882","GP_ID":"233358076","PERIAPSIS":"538.916","FILE":"3926571","ELEMENT_SET_NO":"999","SEMIMAJOR_AXIS":"6917.886","OBJECT_NAME":"STARLINK-4170"},{"TLE_LINE2":"2 53141  53.2164  14.2429 0000895 101.2025 258.9068 15.08843101 49217","NORAD_CAT_ID":"53141","APOAPSIS":"540.355","ARG_OF_PERICENTER":"101.2025","OBJECT_ID":"2022-083K","RA_OF_ASC_NODE":"14.2429","RCS_SIZE":"LARGE","MEAN_ANOMALY":"258.9068","PERIOD":"95.437","TIME_SYSTEM":"UTC","TLE_LINE1":"1 53141U 22083K   23157.79613672  .00000229  00000-0  32445-4 0  9993","MEAN_MOTION_DDOT":"0.0000000000000","LAUNCH_DATE":"2022-07-17","CLASSIFICATION_TYPE":"U","DECAY_DATE":null,"EPOCH":"2023-06-06T19:06:26.212608","CENTER_NAME":"EARTH","ECCENTRICITY":"0.00008950","SITE":"AFETR","BSTAR":"0.00003244500000","INCLINATION":"53.2164","EPHEMERIS_TYPE":"0","REV_AT_EPOCH":"4921","MEAN_ELEMENT_THEORY":"SGP4","REF_FRAME":"TEME","GP_ID":"233358326","PERIAPSIS":"539.117","ELEMENT_SET_NO":"999","FILE":"3926571","OBJECT_NAME":"STARLINK-4103","SEMIMAJOR_AXIS":"6917.871","OBJECT_TYPE":"PAYLOAD","MEAN_MOTION":"15.08843101","COUNTRY_CODE":"US","MEAN_MOTION_DOT":"0.00000229"},{"GP_ID":"233359577","ELEMENT_SET_NO":"999","FILE":"3926571","PERIAPSIS":"538.896","SEMIMAJOR_AXIS":"6917.884","OBJECT_NAME":"STARLINK-4101","OBJECT_TYPE":"PAYLOAD","MEAN_MOTION":"15.08838970","MEAN_MOTION_DOT":"0.00000338","COUNTRY_CODE":"US","INCLINATION":"53.2195","REV_AT_EPOCH":"4922","EPHEMERIS_TYPE":"0","MEAN_ELEMENT_THEORY":"SGP4","REF_FRAME":"TEME","PERIOD":"95.438","TLE_LINE1":"1 53142U 22083L   23157.80718126  .00000338  00000-0  39324-4 0  9990","MEAN_MOTION_DDOT":"0.0000000000000","TIME_SYSTEM":"UTC","LAUNCH_DATE":"2022-07-17","CLASSIFICATION_TYPE":"U","EPOCH":"2023-06-06T19:22:20.460864","DECAY_DATE":null,"CENTER_NAME":"EARTH","SITE":"AFETR","ECCENTRICITY":"0.00012320","BSTAR":"0.00003932400000","NORAD_CAT_ID":"53142","TLE_LINE2":"2 53142  53.2195  14.1907 0001232  98.8313 261.2818 15.08838970 49228","ARG_OF_PERICENTER":"98.8313","APOAPSIS":"540.601","OBJECT_ID":"2022-083L","RA_OF_ASC_NODE":"14.1907","RCS_SIZE":"LARGE","MEAN_ANOMALY":"261.2818"},{"MEAN_MOTION":"15.08842108","OBJECT_TYPE":"PAYLOAD","MEAN_MOTION_DOT":"0.00000291","COUNTRY_CODE":"US","GP_ID":"233359828","SEMIMAJOR_AXIS":"6917.874","OBJECT_NAME":"STARLINK-4102","PERIAPSIS":"539.055","ELEMENT_SET_NO":"999","FILE":"3926571","MEAN_ELEMENT_THEORY":"SGP4","REF_FRAME":"TEME","EPHEMERIS_TYPE":"0","REV_AT_EPOCH":"4921","INCLINATION":"53.2176","CENTER_NAME":"EARTH","DECAY_DATE":null,"EPOCH":"2023-06-06T19:01:08.452416","SITE":"AFETR","ECCENTRICITY":"0.00009880","BSTAR":"0.00003634100000","TIME_SYSTEM":"UTC","MEAN_MOTION_DDOT":"0.0000000000000","TLE_LINE1":"1 53143U 22083M   23157.79245894  .00000291  00000-0  36341-4 0  9990","PERIOD":"95.437","CLASSIFICATION_TYPE":"U","LAUNCH_DATE":"2022-07-17","RA_OF_ASC_NODE":"14.2594","MEAN_ANOMALY":"268.9170","RCS_SIZE":"LARGE","TLE_LINE2":"2 53143  53.2176  14.2594 0000988  91.1936 268.9170 15.08842108 49217","NORAD_CAT_ID":"53143","OBJECT_ID":"2022-083M","APOAPSIS":"540.422","ARG_OF_PERICENTER":"91.1936"},{"RCS_SIZE":"LARGE","MEAN_ANOMALY":"267.8386","RA_OF_ASC_NODE":"14.2082","APOAPSIS":"540.544","ARG_OF_PERICENTER":"92.2741","OBJECT_ID":"2022-083N","TLE_LINE2":"2 53144  53.2184  14.2082 0001174  92.2741 267.8386 15.08844486 49211","NORAD_CAT_ID":"53144","BSTAR":"0.00012431000000","SITE":"AFETR","ECCENTRICITY":"0.00011740","DECAY_DATE":null,"EPOCH":"2023-06-06T19:17:02.248800","CENTER_NAME":"EARTH","LAUNCH_DATE":"2022-07-17","CLASSIFICATION_TYPE":"U","PERIOD":"95.437","TIME_SYSTEM":"UTC","MEAN_MOTION_DDOT":"0.0000000000000","TLE_LINE1":"1 53144U 22083N   23157.80349825  .00001691  00000-0  12431-3 0  9990","REF_FRAME":"TEME","MEAN_ELEMENT_THEORY":"SGP4","INCLINATION":"53.2184","EPHEMERIS_TYPE":"0","REV_AT_EPOCH":"4921","MEAN_MOTION_DOT":"0.00001691","COUNTRY_CODE":"US","OBJECT_TYPE":"PAYLOAD","MEAN_MOTION":"15.08844486","PERIAPSIS":"538.920","FILE":"3926571","ELEMENT_SET_NO":"999","SEMIMAJOR_AXIS":"6917.867","OBJECT_NAME":"STARLINK-4100","GP_ID":"233358576"}];
